STARLINK-30518          
1 58029U 23156B   25232.49548567 -.00001602  00000+0 -41962-4 0  9999
2 58029  53.1598 292.8151 0001145  85.9014 274.2117 15.30197758105515
STARLINK-30549          
1 58030U 23156C   25232.45652083  .00000786  00000+0  38663-4 0  9990
2 58030  53.1584 293.0922 0001156  67.5316 292.5807 15.30189351105175
STARLINK-30556          
1 58031U 23156D   25231.49463085 -.00000407  00000+0 -16220-5 0  9994
2 58031  53.1595 307.5711 0001069  78.2522 281.8598 15.30194275105209
STARLINK-30561          
1 58032U 23156E   25232.46285204  .00000391  00000+0  25339-4 0  9998
2 58032  53.1582 293.1327 0000897  75.4110 284.6990 15.30191877105504
STARLINK-30562          
1 58033U 23156F   25231.65028122 -.00000958  00000+0 -20234-4 0  9993
2 58033  53.1625  26.3559 0001005  79.1264 280.9850 15.30191842104100
STARLINK-30565          
1 58034U 23156G   25232.46496720 -.00000954  00000+0 -20085-4 0  9997
2 58034  53.1597 293.1542 0000946 119.9540 240.1555 15.30192587105500
STARLINK-30438          
1 58035U 23156H   25231.50098293  .00002097  00000+0  82953-4 0  9995
2 58035  53.1602 297.2591 0001155  95.0222 265.0910 15.30180908105315
STARLINK-30437          
1 58036U 23156J   25232.48915063 -.00000417  00000+0 -19450-5 0  9996
2 58036  53.1608 292.7574 0001247  86.7262 273.3881 15.30187812105394
STARLINK-30533          
1 58037U 23156K   25231.67982741 -.00000077  00000+0  95380-5 0  9991
2 58037  53.1609  26.5234 0001040  82.7983 277.3136 15.30188389104104
STARLINK-30560          
1 58038U 23156L   25232.30944608  .00000319  00000+0  22884-4 0  9999
2 58038  53.1586 290.9252 0001070  75.7782 284.3338 15.30194707105269
STARLINK-30559          
1 58039U 23156M   25231.81201182  .00000987  00000+0  64834-4 0  9990
2 58039  53.1625  28.7508 0001027  93.1477 266.9635 15.17068189104086
STARLINK-30555          
1 58040U 23156N   25231.67244139 -.00000203  00000+0  52563-5 0  9994
2 58040  53.1617  26.4948 0001079  97.7949 262.3175 15.30192743104104
STARLINK-30542          
1 58041U 23156P   25232.47646864  .00003195  00000+0  11980-3 0  9993
2 58041  53.1599 292.8492 0001065  83.0205 277.0917 15.30240287105504
STARLINK-30563          
1 58042U 23156Q   25232.47487238  .00002422  00000+0  93895-4 0  9990
2 58042  53.1600 290.3847 0000922 101.3524 258.7580 15.30189370105545
STARLINK-30564          
1 58043U 23156R   25232.46601449 -.00036189  00000+0 -12174-2 0  9990
2 58043  53.1570 293.1593 0001128  92.3819 267.7311 15.30153612105504
STARLINK-30547          
1 58044U 23156S   25231.74830169  .00000132  00000+0  16594-4 0  9993
2 58044  53.1627  26.2106 0001267 100.3719 259.7424 15.30189588104119
STARLINK-30550          
1 58045U 23156T   25231.39652625 -.00003954  00000+0 -12142-3 0  9995
2 58045  53.1598 220.9860 0001382  91.1079 269.0080 15.30202841106405
