[{"OBJECT_NAME":"STARLINK-30518","OBJECT_ID":"2023-156B","EPOCH":"2025-08-20T11:53:29.961888","MEAN_MOTION":15.30197758,"ECCENTRICITY":0.0001145,"INCLINATION":53.1598,"RA_OF_ASC_NODE":292.8151,"ARG_OF_PERICENTER":85.9014,"MEAN_ANOMALY":274.2117,"EPHEMERIS_TYPE":0,"CLASSIFICATION_TYPE":"U","NORAD_CAT_ID":58029,"ELEMENT_SET_NO":999,"REV_AT_EPOCH":10551,"BSTAR":-4.1962e-5,"MEAN_MOTION_DOT":-1.602e-5,"MEAN_MOTION_DDOT":0},{"OBJECT_NAME":"STARLINK-30549","OBJECT_ID":"2023-156C","EPOCH":"2025-08-20T10:57:23.399712","MEAN_MOTION":15.30189351,"ECCENTRICITY":0.0001156,"INCLINATION":53.1584,"RA_OF_ASC_NODE":293.0922,"ARG_OF_PERICENTER":67.5316,"MEAN_ANOMALY":292.5807,"EPHEMERIS_TYPE":0,"CLASSIFICATION_TYPE":"U","NORAD_CAT_ID":58030,"ELEMENT_SET_NO":999,"REV_AT_EPOCH":10517,"BSTAR":3.8663e-5,"MEAN_MOTION_DOT":7.86e-6,"MEAN_MOTION_DDOT":0},{"OBJECT_NAME":"STARLINK-30556","OBJECT_ID":"2023-156D","EPOCH":"2025-08-19T11:52:16.105440","MEAN_MOTION":15.30194275,"ECCENTRICITY":0.0001069,"INCLINATION":53.1595,"RA_OF_ASC_NODE":307.5711,"ARG_OF_PERICENTER":78.2522,"MEAN_ANOMALY":281.8598,"EPHEMERIS_TYPE":0,"CLASSIFICATION_TYPE":"U","NORAD_CAT_ID":58031,"ELEMENT_SET_NO":999,"REV_AT_EPOCH":10520,"BSTAR":-1.622e-6,"MEAN_MOTION_DOT":-4.07e-6,"MEAN_MOTION_DDOT":0},{"OBJECT_NAME":"STARLINK-30561","OBJECT_ID":"2023-156E","EPOCH":"2025-08-20T11:06:30.416256","MEAN_MOTION":15.30191877,"ECCENTRICITY":8.97e-5,"INCLINATION":53.1582,"RA_OF_ASC_NODE":293.1327,"ARG_OF_PERICENTER":75.411,"MEAN_ANOMALY":284.699,"EPHEMERIS_TYPE":0,"CLASSIFICATION_TYPE":"U","NORAD_CAT_ID":58032,"ELEMENT_SET_NO":999,"REV_AT_EPOCH":10550,"BSTAR":2.5339e-5,"MEAN_MOTION_DOT":3.91e-6,"MEAN_MOTION_DDOT":0},{"OBJECT_NAME":"STARLINK-30562","OBJECT_ID":"2023-156F","EPOCH":"2025-08-19T15:36:24.297408","MEAN_MOTION":15.30191842,"ECCENTRICITY":0.0001005,"INCLINATION":53.1625,"RA_OF_ASC_NODE":26.3559,"ARG_OF_PERICENTER":79.1264,"MEAN_ANOMALY":280.985,"EPHEMERIS_TYPE":0,"CLASSIFICATION_TYPE":"U","NORAD_CAT_ID":58033,"ELEMENT_SET_NO":999,"REV_AT_EPOCH":10410,"BSTAR":-2.0234e-5,"MEAN_MOTION_DOT":-9.58e-6,"MEAN_MOTION_DDOT":0},{"OBJECT_NAME":"STARLINK-30565","OBJECT_ID":"2023-156G","EPOCH":"2025-08-20T11:09:33.166080","MEAN_MOTION":15.30192587,"ECCENTRICITY":9.46e-5,"INCLINATION":53.1597,"RA_OF_ASC_NODE":293.1542,"ARG_OF_PERICENTER":119.954,"MEAN_ANOMALY":240.1555,"EPHEMERIS_TYPE":0,"CLASSIFICATION_TYPE":"U","NORAD_CAT_ID":58034,"ELEMENT_SET_NO":999,"REV_AT_EPOCH":10550,"BSTAR":-2.0085e-5,"MEAN_MOTION_DOT":-9.54e-6,"MEAN_MOTION_DDOT":0},{"OBJECT_NAME":"STARLINK-30438","OBJECT_ID":"2023-156H","EPOCH":"2025-08-19T12:01:24.925152","MEAN_MOTION":15.30180908,"ECCENTRICITY":0.0001155,"INCLINATION":53.1602,"RA_OF_ASC_NODE":297.2591,"ARG_OF_PERICENTER":95.0222,"MEAN_ANOMALY":265.091,"EPHEMERIS_TYPE":0,"CLASSIFICATION_TYPE":"U","NORAD_CAT_ID":58035,"ELEMENT_SET_NO":999,"REV_AT_EPOCH":10531,"BSTAR":8.2953e-5,"MEAN_MOTION_DOT":2.097e-5,"MEAN_MOTION_DDOT":0},{"OBJECT_NAME":"STARLINK-30437","OBJECT_ID":"2023-156J","EPOCH":"2025-08-20T11:44:22.614432","MEAN_MOTION":15.30187812,"ECCENTRICITY":0.0001247,"INCLINATION":53.1608,"RA_OF_ASC_NODE":292.7574,"ARG_OF_PERICENTER":86.7262,"MEAN_ANOMALY":273.3881,"EPHEMERIS_TYPE":0,"CLASSIFICATION_TYPE":"U","NORAD_CAT_ID":58036,"ELEMENT_SET_NO":999,"REV_AT_EPOCH":10539,"BSTAR":-1.945e-6,"MEAN_MOTION_DOT":-4.17e-6,"MEAN_MOTION_DDOT":0},{"OBJECT_NAME":"STARLINK-30533","OBJECT_ID":"2023-156K","EPOCH":"2025-08-19T16:18:57.088224","MEAN_MOTION":15.30188389,"ECCENTRICITY":0.000104,"INCLINATION":53.1609,"RA_OF_ASC_NODE":26.5234,"ARG_OF_PERICENTER":82.7983,"MEAN_ANOMALY":277.3136,"EPHEMERIS_TYPE":0,"CLASSIFICATION_TYPE":"U","NORAD_CAT_ID":58037,"ELEMENT_SET_NO":999,"REV_AT_EPOCH":10410,"BSTAR":9.538e-6,"MEAN_MOTION_DOT":-7.7e-7,"MEAN_MOTION_DDOT":0},{"OBJECT_NAME":"STARLINK-30560","OBJECT_ID":"2023-156L","EPOCH":"2025-08-20T07:25:36.141312","MEAN_MOTION":15.30194707,"ECCENTRICITY":0.000107,"INCLINATION":53.1586,"RA_OF_ASC_NODE":290.9252,"ARG_OF_PERICENTER":75.7782,"MEAN_ANOMALY":284.3338,"EPHEMERIS_TYPE":0,"CLASSIFICATION_TYPE":"U","NORAD_CAT_ID":58038,"ELEMENT_SET_NO":999,"REV_AT_EPOCH":10526,"BSTAR":2.2884e-5,"MEAN_MOTION_DOT":3.19e-6,"MEAN_MOTION_DDOT":0},{"OBJECT_NAME":"STARLINK-30559","OBJECT_ID":"2023-156M","EPOCH":"2025-08-19T19:29:17.821248","MEAN_MOTION":15.17068189,"ECCENTRICITY":0.0001027,"INCLINATION":53.1625,"RA_OF_ASC_NODE":28.7508,"ARG_OF_PERICENTER":93.1477,"MEAN_ANOMALY":266.9635,"EPHEMERIS_TYPE":0,"CLASSIFICATION_TYPE":"U","NORAD_CAT_ID":58039,"ELEMENT_SET_NO":999,"REV_AT_EPOCH":10408,"BSTAR":6.4834e-5,"MEAN_MOTION_DOT":9.87e-6,"MEAN_MOTION_DDOT":0},{"OBJECT_NAME":"STARLINK-30555","OBJECT_ID":"2023-156N","EPOCH":"2025-08-19T16:08:18.936096","MEAN_MOTION":15.30192743,"ECCENTRICITY":0.0001079,"INCLINATION":53.1617,"RA_OF_ASC_NODE":26.4948,"ARG_OF_PERICENTER":97.7949,"MEAN_ANOMALY":262.3175,"EPHEMERIS_TYPE":0,"CLASSIFICATION_TYPE":"U","NORAD_CAT_ID":58040,"ELEMENT_SET_NO":999,"REV_AT_EPOCH":10410,"BSTAR":5.2563e-6,"MEAN_MOTION_DOT":-2.03e-6,"MEAN_MOTION_DDOT":0},{"OBJECT_NAME":"STARLINK-30542","OBJECT_ID":"2023-156P","EPOCH":"2025-08-20T11:26:06.890496","MEAN_MOTION":15.30240287,"ECCENTRICITY":0.0001065,"INCLINATION":53.1599,"RA_OF_ASC_NODE":292.8492,"ARG_OF_PERICENTER":83.0205,"MEAN_ANOMALY":277.0917,"EPHEMERIS_TYPE":0,"CLASSIFICATION_TYPE":"U","NORAD_CAT_ID":58041,"ELEMENT_SET_NO":999,"REV_AT_EPOCH":10550,"BSTAR":0.0001198,"MEAN_MOTION_DOT":3.195e-5,"MEAN_MOTION_DDOT":0},{"OBJECT_NAME":"STARLINK-30563","OBJECT_ID":"2023-156Q","EPOCH":"2025-08-20T11:23:48.973632","MEAN_MOTION":15.3018937,"ECCENTRICITY":9.22e-5,"INCLINATION":53.16,"RA_OF_ASC_NODE":290.3847,"ARG_OF_PERICENTER":101.3524,"MEAN_ANOMALY":258.758,"EPHEMERIS_TYPE":0,"CLASSIFICATION_TYPE":"U","NORAD_CAT_ID":58042,"ELEMENT_SET_NO":999,"REV_AT_EPOCH":10554,"BSTAR":9.3895e-5,"MEAN_MOTION_DOT":2.422e-5,"MEAN_MOTION_DDOT":0},{"OBJECT_NAME":"STARLINK-30564","OBJECT_ID":"2023-156R","EPOCH":"2025-08-20T11:11:03.651936","MEAN_MOTION":15.30153612,"ECCENTRICITY":0.0001128,"INCLINATION":53.157,"RA_OF_ASC_NODE":293.1593,"ARG_OF_PERICENTER":92.3819,"MEAN_ANOMALY":267.7311,"EPHEMERIS_TYPE":0,"CLASSIFICATION_TYPE":"U","NORAD_CAT_ID":58043,"ELEMENT_SET_NO":999,"REV_AT_EPOCH":10550,"BSTAR":-0.0012174,"MEAN_MOTION_DOT":-0.00036189,"MEAN_MOTION_DDOT":0},{"OBJECT_NAME":"STARLINK-30547","OBJECT_ID":"2023-156S","EPOCH":"2025-08-19T17:57:33.266016","MEAN_MOTION":15.30189588,"ECCENTRICITY":0.0001267,"INCLINATION":53.1627,"RA_OF_ASC_NODE":26.2106,"ARG_OF_PERICENTER":100.3719,"MEAN_ANOMALY":259.7424,"EPHEMERIS_TYPE":0,"CLASSIFICATION_TYPE":"U","NORAD_CAT_ID":58044,"ELEMENT_SET_NO":999,"REV_AT_EPOCH":10411,"BSTAR":1.6594e-5,"MEAN_MOTION_DOT":1.32e-6,"MEAN_MOTION_DDOT":0},{"OBJECT_NAME":"STARLINK-30550","OBJECT_ID":"2023-156T","EPOCH":"2025-08-19T09:30:59.868000","MEAN_MOTION":15.30202841,"ECCENTRICITY":0.0001382,"INCLINATION":53.1598,"RA_OF_ASC_NODE":220.986,"ARG_OF_PERICENTER":91.1079,"MEAN_ANOMALY":269.008,"EPHEMERIS_TYPE":0,"CLASSIFICATION_TYPE":"U","NORAD_CAT_ID":58045,"ELEMENT_SET_NO":999,"REV_AT_EPOCH":10640,"BSTAR":-0.00012142,"MEAN_MOTION_DOT":-3.954e-5,"MEAN_MOTION_DDOT":0}]
